FLOCK 4BE-17            
1 60492U 24149AA  26189.72695059  .00011296  00000+0  28107-3 0  9999
2 60492  97.3765 273.2745 0003931 162.8357 197.3023 15.40434288105570
FLOCK 4BE-22            
1 60494U 24149AC  26192.22007046  .00010279  00000+0  24386-3 0  9998
2 60494  97.3734 276.0197 0004439 165.7218 194.4155 15.41902678106009
FLOCK 4BE-34            
1 60495U 24149AD  26192.17264687  .00010036  00000+0  23843-3 0  9997
2 60495  97.3781 276.8086 0004428 172.5030 187.6284 15.41867140106026
FLOCK 4BE-32            
1 60497U 24149AF  26189.79009742  .00013635  00000+0  31189-3 0  9992
2 60497  97.3712 273.9609 0004383 177.0530 183.0744 15.42925610105664
FLOCK 4BE-11            
1 60501U 24149AK  26191.19944043  .00014279  00000+0  31750-3 0  9996
2 60501  97.3696 275.6385 0004566 172.5870 187.5446 15.43759592105901
FLOCK 4BE-24            
1 60505U 24149AP  26190.53571544  .00015684  00000+0  34635-3 0  9995
2 60505  97.3710 275.2320 0004496 186.8328 173.2860 15.43944372105819
FLOCK 4BE-29            
1 60509U 24149AT  26191.89132712  .00028735  00000+0  60528-3 0  9990
2 60509  97.3806 278.1349 0002957 185.1010 175.0209 15.45223368106075
FLOCK 4BE-2             
1 60511U 24149AV  26190.66126500  .00051489  00000+0  75479-3 0  9998
2 60511  97.3824 278.6387 0005091 188.0676 172.0497 15.55382059105997
FLOCK 4BE-13            
1 60512U 24149AW  26192.03340690  .00009714  00000+0  22577-3 0  9995
2 60512  97.3719 276.7020 0004773 167.9501 192.1861 15.42538524106044
FLOCK 4BE-27            
1 60513U 24149AX  26191.21140313  .00006801  00000+0  20358-3 0  9994
2 60513  97.3822 273.0785 0003465 199.1987 160.9127 15.34858715105674
FLOCK 4BE-9             
1 60514U 24149AY  26190.03653995  .00011231  00000+0  27016-3 0  9990
2 60514  97.3785 274.5287 0003091 188.6470 171.4725 15.41465848105682
FLOCK 4BE-6             
1 60516U 24149BA  26190.53772123  .00010716  00000+0  26876-3 0  9992
2 60516  97.3785 274.3506 0003749 190.1584 169.9587 15.40208441105715
FLOCK 4BE-14            
1 60517U 24149BB  26191.53871008  .00012078  00000+0  28755-3 0  9997
2 60517  97.3694 275.5187 0004831 192.1520 167.9611 15.41751243105921
FLOCK 4BE-1             
1 60518U 24149BC  26190.03884739  .00013252  00000+0  29887-3 0  9999
2 60518  97.3773 275.3610 0004434 196.2754 163.8352 15.43357693105742
FLOCK 4BE-28            
1 60519U 24149BD  26190.86131701  .00034967  00000+0  71700-3 0  9992
2 60519  97.3741 276.9903 0004492 190.5560 169.5596 15.45968446105947
FLOCK 4BE-5             
1 60559U 24149CV  26192.18905012  .00009304  00000+0  22797-3 0  9996
2 60559  97.3850 276.4294 0003703 184.0455 176.0762 15.40960309105971
